{
    "links": {
        "self": "http://www.neowsapp.com/rest/v1/neo/3837909?api_key=iIulBulltgU6a56xZRHN4H3l9WmuAYTsLGpBGhQ2"
    },
    "id": "3837909",
    "neo_reference_id": "3837909",
    "name": "(2019 AL13)",
    "designation": "2019 AL13",
    "nasa_jpl_url": "http://ssd.jpl.nasa.gov/sbdb.cgi?sstr=3837909",
    "absolute_magnitude_h": 25.9,
    "estimated_diameter": {
        "kilometers": {
            "estimated_diameter_min": 0.0175612318,
            "estimated_diameter_max": 0.0392681082
        },
        "meters": {
            "estimated_diameter_min": 17.561231848,
            "estimated_diameter_max": 39.2681081809
        },
        "miles": {
            "estimated_diameter_min": 0.0109120402,
            "estimated_diameter_max": 0.0244000636
        },
        "feet": {
            "estimated_diameter_min": 57.6155918963,
            "estimated_diameter_max": 128.8323800441
        }
    },
    "is_potentially_hazardous_asteroid": false,
    "close_approach_data": [
        {
            "close_approach_date": "2019-01-25",
            "close_approach_date_full": "2019-Jan-25 07:17",
            "epoch_date_close_approach": 1548400620000,
            "relative_velocity": {
                "kilometers_per_second": "10.7760127373",
                "kilometers_per_hour": "38793.6458541947",
                "miles_per_hour": "24104.8628920134"
            },
            "miss_distance": {
                "astronomical": "0.0525661722",
                "lunar": "20.4482409858",
                "kilometers": "7863787.395173214",
                "miles": "4886330.9051857932"
            },
            "orbiting_body": "Earth"
        }
    ],
    "orbital_data": {
        "orbit_id": "1",
        "orbit_determination_date": "2019-01-17 08:42:06",
        "first_observation_date": "2019-01-13",
        "last_observation_date": "2019-01-17",
        "data_arc_in_days": 4,
        "observations_used": 9,
        "orbit_uncertainty": "8",
        "minimum_orbit_intersection": ".0261496",
        "jupiter_tisserand_invariant": "3.588",
        "epoch_osculation": "2458497.5",
        "eccentricity": ".5370222879268216",
        "semi_major_axis": "2.054872004669966",
        "inclination": "5.129622378056528",
        "ascending_node_longitude": "296.4879499332826",
        "orbital_period": "1075.90912281554",
        "perihelion_distance": ".9513599393253263",
        "perihelion_argument": "224.9567564984012",
        "aphelion_distance": "3.158384070014605",
        "perihelion_time": "2458535.975913238327",
        "mean_anomaly": "347.1259305529911",
        "mean_motion": ".334600750533575",
        "equinox": "J2000",
        "orbit_class": {
            "orbit_class_type": "APO",
            "orbit_class_description": "Near-Earth asteroid orbits which cross the Earth’s orbit similar to that of 1862 Apollo",
            "orbit_class_range": "a (semi-major axis) > 1.0 AU; q (perihelion) < 1.017 AU"
        }
    },
    "is_sentry_object": false
}